0 METEOR 2-6 DEB
1 38838U 80073Q   13282.35235362  .00001937  00000-0  61140-3 0   371
2 38838 081.2094 143.7881 0022004 237.1563 122.8686 14.39841541556574
0 METEOR 2-6 DEB
1 38838U 80073Q   13284.29810128  .00002073  00000-0  65443-3 0   388
2 38838 081.2114 141.7945 0022818 227.7109 132.2902 14.39852382556852
0 METEOR 2-6 DEB
1 38838U 80073Q   13285.89638396  .00002150  00000-0  67879-3 0   392
2 38838 081.2108 140.1496 0023379 228.1765 131.7639 14.39860865557087
0 METEOR 2-6 DEB
1 38838U 80073Q   13287.28619143  .00002246  00000-0  70906-3 0   409
2 38838 081.2093 138.7225 0023422 219.2639 140.6859 14.39868952557283
0 METEOR 2-6 DEB
1 38838U 80073Q   13288.88447014  .00002740  00000-0  86625-3 0   417
2 38838 081.2099 137.0822 0020860 221.3826 138.5922 14.39883641557514
0 METEOR 2-6 DEB
1 38838U 80073Q   13289.30140696  .00002985  00000-0  94367-3 0   425
2 38838 081.2077 136.6579 0021530 215.9727 144.0315 14.39889031557571
0 METEOR 2-6 DEB
1 38838U 80073Q   13291.31658818  .00003174  00000-0  10034-2 0   439
2 38838 081.2098 134.5902 0020969 211.7595 148.2338 14.39904472557863
0 METEOR 2-6 DEB
1 38838U 80073Q   13293.26226526  .00003317  00000-0  10485-2 0   442
2 38838 081.2090 132.5924 0020995 204.9977 155.0317 14.39919769558144
0 METEOR 2-6 DEB
1 38838U 80073Q   13295.27741135  .00003377  00000-0  10671-2 0   457
2 38838 081.2084 130.5248 0020928 198.9431 161.1126 14.39934524558431
